[{"OBJECT_NAME":"YAOGAN-30 06A","OBJECT_ID":"2019-045A","EPOCH":"2026-03-09T19:51:27.981216","MEAN_MOTION":15.02102304,"ECCENTRICITY":0.00031894,"INCLINATION":34.9928,"RA_OF_ASC_NODE":215.4318,"ARG_OF_PERICENTER":139.0512,"MEAN_ANOMALY":221.0436,"EPHEMERIS_TYPE":0,"CLASSIFICATION_TYPE":"U","NORAD_CAT_ID":44449,"ELEMENT_SET_NO":999,"REV_AT_EPOCH":36166,"BSTAR":0.00032896599,"MEAN_MOTION_DOT":4.384e-5,"MEAN_MOTION_DDOT":0},{"OBJECT_NAME":"STARLINK-34407","OBJECT_ID":"2025-126D","EPOCH":"2026-03-09T22:04:21.843264","MEAN_MOTION":14.98597116,"ECCENTRICITY":0.00057451,"INCLINATION":70.0054,"RA_OF_ASC_NODE":33.9827,"ARG_OF_PERICENTER":207.854,"MEAN_ANOMALY":152.2312,"EPHEMERIS_TYPE":0,"CLASSIFICATION_TYPE":"U","NORAD_CAT_ID":64347,"ELEMENT_SET_NO":999,"REV_AT_EPOCH":4071,"BSTAR":0.025029772,"MEAN_MOTION_DOT":0.00314549,"MEAN_MOTION_DDOT":0}]
